{
  "type": "FeatureCollection",
  "features": [
    {
      "type": "Feature",
      "properties": {
        "norad_id": 54259,
        "name": "EUTELSAT 10B",
        "group": "eutelsat",
        "lat": 0.05905502549057427,
        "lon": 159.20344213163153,
        "alt_km": 35784.02896449113,
        "timestamp": "2025-12-21T03:56:50.525810+00:00",
        "meta_object_name": "EUTELSAT 10B",
        "meta_object_id": "2022-157A",
        "meta_epoch": "2025-12-20T18:24:52.236000",
        "meta_mean_motion": 1.00272694,
        "meta_eccentricity": 7.59e-05,
        "meta_inclination": 0.0616,
        "meta_ra_of_asc_node": 96.748,
        "meta_arg_of_pericenter": 5.7344,
        "meta_mean_anomaly": 273.3366,
        "meta_ephemeris_type": 0,
        "meta_classification_type": "U",
        "meta_norad_cat_id": 54259,
        "meta_element_set_no": 999,
        "meta_rev_at_epoch": 1123,
        "meta_bstar": 0,
        "meta_mean_motion_dot": 9.2e-07,
        "meta_mean_motion_ddot": 0,
        "tle_line1": "1 54259U 22157A   25354.76727125  .00000092  00000+0  00000+0 0  9997",
        "tle_line2": "2 54259   0.0616  96.7480 0000759   5.7344 273.3366  1.00272694 11236"
      },
      "geometry": {
        "type": "Point",
        "coordinates": [
          159.20344213163153,
          0.05905502549057427
        ]
      }
    },
    {
      "type": "Feature",
      "properties": {
        "norad_id": 59346,
        "name": "EUTELSAT 36D",
        "group": "eutelsat",
        "lat": 0.008080822017983418,
        "lon": -174.96339232247706,
        "alt_km": 35788.525151414084,
        "timestamp": "2025-12-21T03:56:50.525821+00:00",
        "meta_object_name": "EUTELSAT 36D",
        "meta_object_id": "2024-059A",
        "meta_epoch": "2025-12-19T22:17:14.700768",
        "meta_mean_motion": 1.0027216,
        "meta_eccentricity": 6.505e-05,
        "meta_inclination": 0.0247,
        "meta_ra_of_asc_node": 22.0433,
        "meta_arg_of_pericenter": 347.9809,
        "meta_mean_anomaly": 88.8998,
        "meta_ephemeris_type": 0,
        "meta_classification_type": "U",
        "meta_norad_cat_id": 59346,
        "meta_element_set_no": 999,
        "meta_rev_at_epoch": 635,
        "meta_bstar": 0,
        "meta_mean_motion_dot": 0,
        "meta_mean_motion_ddot": 0,
        "tle_line1": "1 59346U 24059A   25353.92864237  .00000000  00000+0  00000+0 0  9994",
        "tle_line2": "2 59346   0.0247  22.0433 0000650 347.9809  88.8998  1.00272160  6350"
      },
      "geometry": {
        "type": "Point",
        "coordinates": [
          -174.96339232247706,
          0.008080822017983418
        ]
      }
    }
  ]
}